[{"OBJECT_NAME":"SUPERVIEW-1 03","OBJECT_ID":"2018-002A","EPOCH":"2026-03-09T22:14:33.880992","MEAN_MOTION":15.35916978,"ECCENTRICITY":0.00509393,"INCLINATION":97.3162,"RA_OF_ASC_NODE":154.1458,"ARG_OF_PERICENTER":177.0269,"MEAN_ANOMALY":183.1288,"EPHEMERIS_TYPE":0,"CLASSIFICATION_TYPE":"U","NORAD_CAT_ID":43099,"ELEMENT_SET_NO":999,"REV_AT_EPOCH":45311,"BSTAR":0.00062641306,"MEAN_MOTION_DOT":0.00022818,"MEAN_MOTION_DDOT":0},{"OBJECT_NAME":"STARLINK-35496","OBJECT_ID":"2025-237A","EPOCH":"2026-03-09T07:36:02.361600","MEAN_MOTION":15.3019216,"ECCENTRICITY":0.00014829,"INCLINATION":53.1623,"RA_OF_ASC_NODE":41.3452,"ARG_OF_PERICENTER":97.7172,"MEAN_ANOMALY":262.3997,"EPHEMERIS_TYPE":0,"CLASSIFICATION_TYPE":"U","NORAD_CAT_ID":66114,"ELEMENT_SET_NO":999,"REV_AT_EPOCH":2255,"BSTAR":0.00096285388,"MEAN_MOTION_DOT":0.00028259,"MEAN_MOTION_DDOT":0}]
